INTELSAT 30 (IS-30)     
1 40271U 14062A   26114.39488937 -.00000165  00000+0  00000+0 0  9993
2 40271   0.0073 224.7449 0002247  46.3663 348.4158  1.00269572  6259
DIRECTV 14              
1 40333U 14078B   26115.40485747 -.00000139  00000+0  00000+0 0  9999
2 40333   0.0104  54.8027 0000596 102.7497 102.3726  1.00270418 41511
DIRECTV 15              
1 40663U 15026A   26115.60074366  .00000000  00000+0  00000+0 0  9998
2 40663   0.0169 115.5670 0000314  64.6129 146.8291  1.00270530 39931
SKY MEXICO-1            
1 40664U 15026B   26115.86780985 -.00000248  00000+0  00000+0 0  9993
2 40664   0.0434  69.3381 0002045 318.0762  60.0591  1.00271508 39929
INTELSAT 34 (IS-34)     
1 40874U 15039A   26115.30669823 -.00000300  00000+0  00000+0 0  9995
2 40874   0.0145 284.3607 0000314  32.2445 311.6334  1.00272204 39105
INTELSAT 31 (IS-31)     
1 41581U 16035A   26115.12049376 -.00000165  00000+0  00000+0 0  9992
2 41581   0.0102 233.3487 0002248  37.9364 250.1882  1.00271589 36156
INTELSAT 36 (IS-36)     
1 41747U 16053A   26115.20878034 -.00000038  00000+0  00000+0 0  9995
2 41747   0.0144 331.2817 0001681 357.9480  27.6553  1.00270344 35424
INTELSAT 32E (IS-32E)   
1 41945U 17007B   26114.84549932  .00000000  00000+0  00000+0 0  9994
2 41945   0.0152 235.0770 0000544  92.8548 146.1440  1.00268181 33694
INTELSAT 35E (IS-35E)   
1 42818U 17041A   26115.85600465  .00000000  00000+0  00000+0 0  9993
2 42818   0.0137 225.9236 0002175 165.7928  95.8281  1.00271576 32296
INTELSAT 37E (IS-37E)   
1 42950U 17059A   26115.85044699 -.00000154  00000+0  00000+0 0  9991
2 42950   0.0087 208.5308 0002120 206.9261  86.5636  1.00271685 31541
AZERSPACE 2 (IS-38)     
1 43632U 18074A   26115.07690027  .00000122  00000+0  00000+0 0  9997
2 43632   0.0184 236.9958 0001435 151.2552 257.6372  1.00271567 27919
HORIZONS-3E             
1 43633U 18074B   26115.24408093 -.00000045  00000+0  00000+0 0  9992
2 43633   0.0370  71.4068 0000861 258.9684 139.7462  1.00270571 27817
AT&T T-16               
1 44333U 19034A   26115.54707912 -.00000129  00000+0  00000+0 0  9995
2 44333   0.0388  62.8509 0000744 158.3842  88.4190  1.00271356 25107
INTELSAT 39 (IS-39)     
1 44476U 19049B   26115.72199330  .00000000  00000+0  00000+0 0  9995
2 44476   0.0173 238.7985 0000479   6.5465 290.2524  1.00269540 24609
GALAXY 30 (G-30)        
1 46114U 20056C   26115.68489983  .00000000  00000+0  00000+0 0  9997
2 46114   0.0142 234.9528 0002407 170.7438 289.5604  1.00270886 20762
GALAXY 33 (G-33)        
1 54026U 22128A   26115.68333980  .00000065  00000+0  00000+0 0  9996
2 54026   0.0118 120.1579 0001842 261.7248 304.8067  1.00270707 13218
GALAXY 34 (G-34)        
1 54027U 22128B   26115.61433455  .00000000  00000+0  00000+0 0  9997
2 54027   0.0108 219.1287 0001501 175.0993 271.5552  1.00270730 13382
