[{"OBJECT_NAME":"INTELSAT 30 (IS-30)","OBJECT_ID":"2014-062A","EPOCH":"2026-04-24T09:28:38.441568","MEAN_MOTION":1.00269572,"ECCENTRICITY":0.00022471,"INCLINATION":0.0073,"RA_OF_ASC_NODE":224.7449,"ARG_OF_PERICENTER":46.3663,"MEAN_ANOMALY":348.4158,"EPHEMERIS_TYPE":0,"CLASSIFICATION_TYPE":"U","NORAD_CAT_ID":40271,"ELEMENT_SET_NO":999,"REV_AT_EPOCH":625,"BSTAR":0,"MEAN_MOTION_DOT":-1.65e-6,"MEAN_MOTION_DDOT":0},{"OBJECT_NAME":"DIRECTV 14","OBJECT_ID":"2014-078B","EPOCH":"2026-04-25T09:42:59.685408","MEAN_MOTION":1.00270418,"ECCENTRICITY":5.96e-5,"INCLINATION":0.0104,"RA_OF_ASC_NODE":54.8027,"ARG_OF_PERICENTER":102.7497,"MEAN_ANOMALY":102.3726,"EPHEMERIS_TYPE":0,"CLASSIFICATION_TYPE":"U","NORAD_CAT_ID":40333,"ELEMENT_SET_NO":999,"REV_AT_EPOCH":4151,"BSTAR":0,"MEAN_MOTION_DOT":-1.39e-6,"MEAN_MOTION_DDOT":0},{"OBJECT_NAME":"DIRECTV 15","OBJECT_ID":"2015-026A","EPOCH":"2026-04-25T14:25:04.252224","MEAN_MOTION":1.0027053,"ECCENTRICITY":3.14e-5,"INCLINATION":0.0169,"RA_OF_ASC_NODE":115.567,"ARG_OF_PERICENTER":64.6129,"MEAN_ANOMALY":146.8291,"EPHEMERIS_TYPE":0,"CLASSIFICATION_TYPE":"U","NORAD_CAT_ID":40663,"ELEMENT_SET_NO":999,"REV_AT_EPOCH":3993,"BSTAR":0,"MEAN_MOTION_DOT":0,"MEAN_MOTION_DDOT":0},{"OBJECT_NAME":"SKY MEXICO-1","OBJECT_ID":"2015-026B","EPOCH":"2026-04-25T20:49:38.771040","MEAN_MOTION":1.00271508,"ECCENTRICITY":0.0002045,"INCLINATION":0.0434,"RA_OF_ASC_NODE":69.3381,"ARG_OF_PERICENTER":318.0762,"MEAN_ANOMALY":60.0591,"EPHEMERIS_TYPE":0,"CLASSIFICATION_TYPE":"U","NORAD_CAT_ID":40664,"ELEMENT_SET_NO":999,"REV_AT_EPOCH":3992,"BSTAR":0,"MEAN_MOTION_DOT":-2.48e-6,"MEAN_MOTION_DDOT":0},{"OBJECT_NAME":"INTELSAT 34 (IS-34)","OBJECT_ID":"2015-039A","EPOCH":"2026-04-25T07:21:38.727072","MEAN_MOTION":1.00272204,"ECCENTRICITY":3.14e-5,"INCLINATION":0.0145,"RA_OF_ASC_NODE":284.3607,"ARG_OF_PERICENTER":32.2445,"MEAN_ANOMALY":311.6334,"EPHEMERIS_TYPE":0,"CLASSIFICATION_TYPE":"U","NORAD_CAT_ID":40874,"ELEMENT_SET_NO":999,"REV_AT_EPOCH":3910,"BSTAR":0,"MEAN_MOTION_DOT":-3.0e-6,"MEAN_MOTION_DDOT":0},{"OBJECT_NAME":"INTELSAT 31 (IS-31)","OBJECT_ID":"2016-035A","EPOCH":"2026-04-25T02:53:30.660864","MEAN_MOTION":1.00271589,"ECCENTRICITY":0.00022489,"INCLINATION":0.0102,"RA_OF_ASC_NODE":233.3487,"ARG_OF_PERICENTER":37.9364,"MEAN_ANOMALY":250.1882,"EPHEMERIS_TYPE":0,"CLASSIFICATION_TYPE":"U","NORAD_CAT_ID":41581,"ELEMENT_SET_NO":999,"REV_AT_EPOCH":3615,"BSTAR":0,"MEAN_MOTION_DOT":-1.65e-6,"MEAN_MOTION_DDOT":0},{"OBJECT_NAME":"INTELSAT 36 (IS-36)","OBJECT_ID":"2016-053A","EPOCH":"2026-04-25T05:00:38.621376","MEAN_MOTION":1.00270344,"ECCENTRICITY":0.0001681,"INCLINATION":0.0144,"RA_OF_ASC_NODE":331.2817,"ARG_OF_PERICENTER":357.948,"MEAN_ANOMALY":27.6553,"EPHEMERIS_TYPE":0,"CLASSIFICATION_TYPE":"U","NORAD_CAT_ID":41747,"ELEMENT_SET_NO":999,"REV_AT_EPOCH":3542,"BSTAR":0,"MEAN_MOTION_DOT":-3.8e-7,"MEAN_MOTION_DDOT":0},{"OBJECT_NAME":"INTELSAT 32E (IS-32E)","OBJECT_ID":"2017-007B","EPOCH":"2026-04-24T20:17:31.141248","MEAN_MOTION":1.00268181,"ECCENTRICITY":5.449e-5,"INCLINATION":0.0152,"RA_OF_ASC_NODE":235.077,"ARG_OF_PERICENTER":92.8548,"MEAN_ANOMALY":146.144,"EPHEMERIS_TYPE":0,"CLASSIFICATION_TYPE":"U","NORAD_CAT_ID":41945,"ELEMENT_SET_NO":999,"REV_AT_EPOCH":3369,"BSTAR":0,"MEAN_MOTION_DOT":0,"MEAN_MOTION_DDOT":0},{"OBJECT_NAME":"INTELSAT 35E (IS-35E)","OBJECT_ID":"2017-041A","EPOCH":"2026-04-25T20:32:38.801760","MEAN_MOTION":1.00271576,"ECCENTRICITY":0.0002175,"INCLINATION":0.0137,"RA_OF_ASC_NODE":225.9236,"ARG_OF_PERICENTER":165.7928,"MEAN_ANOMALY":95.8281,"EPHEMERIS_TYPE":0,"CLASSIFICATION_TYPE":"U","NORAD_CAT_ID":42818,"ELEMENT_SET_NO":999,"REV_AT_EPOCH":3229,"BSTAR":0,"MEAN_MOTION_DOT":0,"MEAN_MOTION_DDOT":0},{"OBJECT_NAME":"INTELSAT 37E (IS-37E)","OBJECT_ID":"2017-059A","EPOCH":"2026-04-25T20:24:38.619936","MEAN_MOTION":1.00271685,"ECCENTRICITY":0.000212,"INCLINATION":0.0087,"RA_OF_ASC_NODE":208.5308,"ARG_OF_PERICENTER":206.9261,"MEAN_ANOMALY":86.5636,"EPHEMERIS_TYPE":0,"CLASSIFICATION_TYPE":"U","NORAD_CAT_ID":42950,"ELEMENT_SET_NO":999,"REV_AT_EPOCH":3154,"BSTAR":0,"MEAN_MOTION_DOT":-1.54e-6,"MEAN_MOTION_DDOT":0},{"OBJECT_NAME":"AZERSPACE 2 (IS-38)","OBJECT_ID":"2018-074A","EPOCH":"2026-04-25T01:50:44.183328","MEAN_MOTION":1.00271567,"ECCENTRICITY":0.00014359,"INCLINATION":0.0184,"RA_OF_ASC_NODE":236.9958,"ARG_OF_PERICENTER":151.2552,"MEAN_ANOMALY":257.6372,"EPHEMERIS_TYPE":0,"CLASSIFICATION_TYPE":"U","NORAD_CAT_ID":43632,"ELEMENT_SET_NO":999,"REV_AT_EPOCH":2791,"BSTAR":0,"MEAN_MOTION_DOT":1.22e-6,"MEAN_MOTION_DDOT":0},{"OBJECT_NAME":"HORIZONS-3E","OBJECT_ID":"2018-074B","EPOCH":"2026-04-25T05:51:28.592352","MEAN_MOTION":1.00270571,"ECCENTRICITY":8.61e-5,"INCLINATION":0.037,"RA_OF_ASC_NODE":71.4068,"ARG_OF_PERICENTER":258.9684,"MEAN_ANOMALY":139.7462,"EPHEMERIS_TYPE":0,"CLASSIFICATION_TYPE":"U","NORAD_CAT_ID":43633,"ELEMENT_SET_NO":999,"REV_AT_EPOCH":2781,"BSTAR":0,"MEAN_MOTION_DOT":-4.5e-7,"MEAN_MOTION_DDOT":0},{"OBJECT_NAME":"AT&T T-16","OBJECT_ID":"2019-034A","EPOCH":"2026-04-25T13:07:47.635968","MEAN_MOTION":1.00271356,"ECCENTRICITY":7.44e-5,"INCLINATION":0.0388,"RA_OF_ASC_NODE":62.8509,"ARG_OF_PERICENTER":158.3842,"MEAN_ANOMALY":88.419,"EPHEMERIS_TYPE":0,"CLASSIFICATION_TYPE":"U","NORAD_CAT_ID":44333,"ELEMENT_SET_NO":999,"REV_AT_EPOCH":2510,"BSTAR":0,"MEAN_MOTION_DOT":-1.29e-6,"MEAN_MOTION_DDOT":0},{"OBJECT_NAME":"INTELSAT 39 (IS-39)","OBJECT_ID":"2019-049B","EPOCH":"2026-04-25T17:19:40.221120","MEAN_MOTION":1.0026954,"ECCENTRICITY":4.79e-5,"INCLINATION":0.0173,"RA_OF_ASC_NODE":238.7985,"ARG_OF_PERICENTER":6.5465,"MEAN_ANOMALY":290.2524,"EPHEMERIS_TYPE":0,"CLASSIFICATION_TYPE":"U","NORAD_CAT_ID":44476,"ELEMENT_SET_NO":999,"REV_AT_EPOCH":2460,"BSTAR":0,"MEAN_MOTION_DOT":0,"MEAN_MOTION_DDOT":0},{"OBJECT_NAME":"GALAXY 30 (G-30)","OBJECT_ID":"2020-056C","EPOCH":"2026-04-25T16:26:15.345312","MEAN_MOTION":1.00270886,"ECCENTRICITY":0.0002407,"INCLINATION":0.0142,"RA_OF_ASC_NODE":234.9528,"ARG_OF_PERICENTER":170.7438,"MEAN_ANOMALY":289.5604,"EPHEMERIS_TYPE":0,"CLASSIFICATION_TYPE":"U","NORAD_CAT_ID":46114,"ELEMENT_SET_NO":999,"REV_AT_EPOCH":2076,"BSTAR":0,"MEAN_MOTION_DOT":0,"MEAN_MOTION_DDOT":0},{"OBJECT_NAME":"GALAXY 33 (G-33)","OBJECT_ID":"2022-128A","EPOCH":"2026-04-25T16:24:00.558720","MEAN_MOTION":1.00270707,"ECCENTRICITY":0.0001842,"INCLINATION":0.0118,"RA_OF_ASC_NODE":120.1579,"ARG_OF_PERICENTER":261.7248,"MEAN_ANOMALY":304.8067,"EPHEMERIS_TYPE":0,"CLASSIFICATION_TYPE":"U","NORAD_CAT_ID":54026,"ELEMENT_SET_NO":999,"REV_AT_EPOCH":1321,"BSTAR":0,"MEAN_MOTION_DOT":6.5e-7,"MEAN_MOTION_DDOT":0},{"OBJECT_NAME":"GALAXY 34 (G-34)","OBJECT_ID":"2022-128B","EPOCH":"2026-04-25T14:44:38.505120","MEAN_MOTION":1.0027073,"ECCENTRICITY":0.0001501,"INCLINATION":0.0108,"RA_OF_ASC_NODE":219.1287,"ARG_OF_PERICENTER":175.0993,"MEAN_ANOMALY":271.5552,"EPHEMERIS_TYPE":0,"CLASSIFICATION_TYPE":"U","NORAD_CAT_ID":54027,"ELEMENT_SET_NO":999,"REV_AT_EPOCH":1338,"BSTAR":0,"MEAN_MOTION_DOT":0,"MEAN_MOTION_DDOT":0}]
